GSAT0201 (GALILEO 5)    
1 40128U 14050A   23244.10901188 -.00000071  00000+0  00000+0 0  9995
2 40128  49.9380 314.6966 1609026 140.2554 232.7320  1.85519045 59393
GSAT0202 (GALILEO 6)    
1 40129U 14050B   23244.90740205 -.00000077  00000+0  00000+0 0  9991
2 40129  49.9565 313.7361 1606907 141.0959 231.6587  1.85519726 61573
IRNSS-1C                
1 40269U 14061A   23245.60259109 -.00000176  00000+0  00000+0 0  9994
2 40269   3.9586 112.7655 0020099  17.2745 151.4040  1.00271021 32472
NAVSTAR 72 (USA 258)    
1 40294U 14068A   23245.32792409 -.00000027  00000+0  00000+0 0  9998
2 40294  56.1752  70.5386 0049082  61.8130 298.7328  2.00571569 64776
COSMOS 2501             
1 40315U 14075A   23244.13085404  .00000039  00000+0  00000+0 0  9990
2 40315  63.6407 225.7712 0020055 211.5155 148.3487  2.13101284 68112
NAVSTAR 73 (USA 260)    
1 40534U 15013A   23245.46372576  .00000022  00000+0  00000+0 0  9994
2 40534  53.4656 246.3674 0080267  25.2479 335.1440  2.00554758 61396
GSAT0203 (GALILEO 7)    
1 40544U 15017A   23245.31645529 -.00000100  00000+0  00000+0 0  9992
2 40544  56.9049   9.3271 0002998 224.2992 135.6752  1.70476090 51832
GSAT0204 (GALILEO 8)    
1 40545U 15017B   23244.98349117 -.00000099  00000+0  00000+0 0  9996
2 40545  56.9109   9.3505 0003392 206.4588 153.5219  1.70475605 14873
IRNSS-1D                
1 40547U 15018A   23242.88162167 -.00000280  00000+0  00000+0 0  9996
2 40547  28.0830 257.7102 0020177 191.9638 318.2901  1.00269518 31001
BEIDOU-3S IGSO-1S       
1 40549U 15019A   23245.60173088 -.00000162  00000+0  00000+0 0  9995
2 40549  51.1017 307.5922 0041022 195.9777 148.4239  1.00256237 30854
NAVSTAR 74 (USA 262)    
1 40730U 15033A   23245.12682147 -.00000054  00000+0  00000+0 0  9991
2 40730  54.8471 308.8212 0085138  13.9658 346.3389  2.00555316 59553
BEIDOU-3S M2S           
1 40748U 15037A   23244.64782423 -.00000094  00000+0  00000+0 0  9992
2 40748  55.6639 336.8588 0011154 240.5650 119.3668  1.86233129 55137
BEIDOU-3S M1S           
1 40749U 15037B   23244.91792488 -.00000095  00000+0  00000+0 0  9996
2 40749  55.6667 336.8360 0003051 302.4180  57.5956  1.86232771 55146
GSAT0205 (GALILEO 9)    
1 40889U 15045A   23244.16484061  .00000034  00000+0  00000+0 0  9994
2 40889  55.3655 249.7837 0003380 357.9516   2.0575  1.70473351 49621
GSAT0206 (GALILEO 10)   
1 40890U 15045B   23244.97210686  .00000031  00000+0  00000+0 0  9992
2 40890  55.3642 249.7569 0002381 323.8069  36.1824  1.70473347 49660
BEIDOU-3S IGSO-2S       
1 40938U 15053A   23245.53382565 -.00000116  00000+0  00000+0 0  9998
2 40938  50.8114 270.7643 0048078 194.2893 164.5026  1.00283464 29134
NAVSTAR 75 (USA 265)    
1 41019U 15062A   23245.17956439 -.00000026  00000+0  00000+0 0  9996
2 41019  56.1590  70.3945 0088991 221.0188 138.3588  2.00562181 57393
GSAT-15                 
1 41028U 15065A   23245.60600313 -.00000273  00000+0  00000+0 0  9998
2 41028   0.0662 275.3891 0002011 223.6844 154.0560  1.00271748 28583
GSAT0209 (GALILEO 12)   
1 41174U 15079A   23245.14387577  .00000001  00000+0  00000+0 0  9996
2 41174  55.2987 129.2602 0003132 329.9590  30.1113  1.70473875 47409
GSAT0208 (GALILEO 11)   
1 41175U 15079B   23243.01714922  .00000004  00000+0  00000+0 0  9992
2 41175  55.2960 129.3169 0002555 336.6745  23.3971  1.70473830 47783
IRNSS-1E                
1 41241U 16003A   23244.57424400 -.00000300  00000+0  00000+0 0  9995
2 41241  30.9695  77.8370 0020196 175.5301  45.6544  1.00277477 27853
NAVSTAR 76 (USA 266)    
1 41328U 16007A   23244.77319959  .00000014  00000+0  00000+0 0  9990
2 41328  55.0159 129.9524 0071357 233.9125 125.5041  2.00575683 55391
COSMOS 2514             
1 41330U 16008A   23245.05070030 -.00000077  00000+0  00000+0 0  9990
2 41330  65.5042 347.7556 0011657 206.6519 153.3181  2.13102567 58902
IRNSS-1F                
1 41384U 16015A   23245.55659580  .00000145  00000+0  00000+0 0  9990
2 41384   2.9297 129.9187 0018397 177.1295 266.9860  1.00268290 27451
BEIDOU-2 IGSO-6         
1 41434U 16021A   23245.42581601 -.00000153  00000+0  00000+0 0  9997
2 41434  58.7510  48.2832 0047082 217.7140 324.9708  1.00283062 27266
IRNSS-1G                
1 41469U 16027A   23245.50438220 -.00000350  00000+0  00000+0 0  9997
2 41469   2.8202 131.6041 0003685   0.1725 160.6253  1.00264607 26965
GSAT0211 (GALILEO 14)   
1 41549U 16030A   23244.31120500  .00000034  00000+0  00000+0 0  9995
2 41549  55.5118 249.7550 0003988 308.2702  51.7034  1.70473456 45288
GSAT0210 (GALILEO 13)   
1 41550U 16030B   23245.18931381  .00000031  00000+0  00000+0 0  9997
2 41550  55.5106 249.7321 0004217 274.4023  85.5539  1.70473561 45292
COSMOS 2516             
1 41554U 16032A   23243.75771506  .00000039  00000+0  00000+0 0  9993
2 41554  63.8672 226.1841 0015496 214.6819 145.2033  2.13106349 56483
BEIDOU-2 G7             
1 41586U 16037A   23245.57896521 -.00000368  00000+0  00000+0 0  9996
2 41586   1.8661  68.4264 0007135 346.6217 245.4076  1.00271561 26574
EUTELSAT 117 WEST B     
1 41589U 16038B   23245.56552795 -.00000026  00000+0  00000+0 0  9992
2 41589   0.0145 288.6867 0000143 157.9975 341.3713  1.00272205 26442
GSAT0207 (GALILEO 15)   
1 41859U 16069A   23243.67796581  .00000004  00000+0  00000+0 0  9994
2 41859  54.9607 129.3735 0003146 308.0773  51.9800  1.70473748 42002
GSAT0212 (GALILEO 16)   
1 41860U 16069B   23244.70580252  .00000002  00000+0  00000+0 0  9995
2 41860  54.9588 129.3417 0002346 355.4457   4.6400  1.70474053 42275
GSAT0213 (GALILEO 17)   
1 41861U 16069C   23244.48525747  .00000003  00000+0  00000+0 0  9990
2 41861  54.9610 129.3539 0002980 279.5929  80.4610  1.70472709 42137
GSAT0214 (GALILEO 18)   
1 41862U 16069D   23245.21908982  .00000000  00000+0  00000+0 0  9996
2 41862  54.9599 129.3273 0001898 287.4350  72.6321  1.70472544 42276
SES-15                  
1 42709U 17026A   23245.55774691  .00000045  00000+0  00000+0 0  9995
2 42709   0.0241  48.3076 0000399 125.4538 239.3003  1.00268420 23927
QZS-2 (MICHIBIKI-2)     
1 42738U 17028A   23245.36490016 -.00000155  00000+0  00000+0 0  9997
2 42738  41.0474 257.8939 0752320 270.0602  85.8865  1.00265532 22935
QZS-3 (MICHIBIKI-3)     
1 42917U 17048A   23245.50386007 -.00000363  00000+0  00000+0 0  9999
2 42917   0.0654 210.7464 0002157 331.0666 108.0156  1.00272722 22046
COSMOS 2522             
1 42939U 17055A   23244.89247570  .00000041  00000+0  00000+0 0  9995
2 42939  64.1013 226.6693 0009893 243.3625 116.5202  2.13101932 46258
QZS-4 (MICHIBIKI-4)     
1 42965U 17062A   23244.63730097 -.00000338  00000+0  00000+0 0  9995
2 42965  40.6371 356.4804 0747661 269.2188  83.6504  1.00280970 21596
BEIDOU-3 M1             
1 43001U 17069A   23244.99527697  .00000002  00000+0  00000+0 0  9990
2 43001  55.8402  96.9039 0007880 301.9764  58.0372  1.86231469 39628
BEIDOU-3 M2             
1 43002U 17069B   23244.93199859  .00000003  00000+0  00000+0 0  9991
2 43002  55.8393  96.9423 0006381 334.0319  26.0267  1.86231113 39616
GSAT0215 (GALILEO 19)   
1 43055U 17079A   23243.94801657  .00000036  00000+0  00000+0 0  9992
2 43055  55.4885 249.5912 0003740 268.3579  91.6110  1.70474076 35596
GSAT0216 (GALILEO 20)   
1 43056U 17079B   23241.30705576  .00000059  00000+0  00000+0 0  9999
2 43056  55.4897 249.6640 0005319 274.1200  85.8537  1.70474269 35568
GSAT0217 (GALILEO 21)   
1 43057U 17079C   23243.28713315  .00000040  00000+0  00000+0 0  9999
2 43057  55.4874 249.6083 0004633 284.3532  75.6126  1.70474204 35586
GSAT0218 (GALILEO 22)   
1 43058U 17079D   23245.26691471  .00000031  00000+0  00000+0 0  9998
2 43058  55.4863 249.5513 0005766 271.4127  88.5249  1.70474161 35645
BEIDOU-3 M7             
1 43107U 18003A   23244.68280998 -.00000095  00000+0  00000+0 0  9995
2 43107  55.1199 337.5755 0003602  78.7907 281.2912  1.86232351 38367
BEIDOU-3 M8             
1 43108U 18003B   23244.08393493 -.00000092  00000+0  00000+0 0  9992
2 43108  55.1133 337.5830 0003911 242.2075 117.7939  1.86230790 38364
BEIDOU-3 M4             
1 43207U 18018A   23244.52634046  .00000007  00000+0  00000+0 0  9994
2 43207  55.7985  97.0187 0004946  12.4558 347.6492  1.86231382 37758
BEIDOU-3 M3             
1 43208U 18018B   23245.12993997  .00000000  00000+0  00000+0 0  9998
2 43208  55.7985  97.0028 0005901 319.4410  40.6047  1.86231300 37769
BEIDOU-3 M9             
1 43245U 18029A   23244.81581217 -.00000094  00000+0  00000+0 0  9998
2 43245  55.0142 335.3045 0001396 211.7933 148.2433  1.86232368 36918
BEIDOU-3 M10            
1 43246U 18029B   23245.28279641 -.00000097  00000+0  00000+0 0  9999
2 43246  55.0113 335.3175 0002693 358.1038   1.9402  1.86232826 36903
IRNSS-1I                
1 43286U 18035A   23245.13142272  .00000084  00000+0  00000+0 0  9998
2 43286  29.2463  90.2263 0019542 176.4526 176.7301  1.00270832 19856
COSMOS 2527             
1 43508U 18053A   23245.32048511  .00000022  00000+0  00000+0 0  9999
2 43508  65.0906 108.0174 0007359 220.0020 140.0362  2.13102371 40560
BEIDOU-2 IGSO-7         
1 43539U 18057A   23245.37053219 -.00000153  00000+0  00000+0 0  9999
2 43539  55.1211 171.8764 0064621 231.2572 184.7541  1.00283982 18930
GSAT0221 (GALILEO 25)   
1 43564U 18060A   23244.58006907 -.00000097  00000+0  00000+0 0  9992
2 43564  57.2853   9.2746 0002610 252.3714 107.5973  1.70475928 31789
GSAT0222 (GALILEO 26)   
1 43565U 18060B   23245.38473711 -.00000099  00000+0  00000+0 0  9995
2 43565  57.2889   9.2541 0003294 209.0198 150.9603  1.70475728 31843
GSAT0219 (GALILEO 23)   
1 43566U 18060C   23243.84731546 -.00000095  00000+0  00000+0 0  9994
2 43566  57.2878   9.2976 0001644 255.4580 104.5202  1.70475930 31790
GSAT0220 (GALILEO 24)   
1 43567U 18060D   23244.06773158 -.00000096  00000+0  00000+0 0  9996
2 43567  57.2876   9.2915 0002112 248.4042 111.5699  1.70475557 31780
BEIDOU-3 M5             
1 43581U 18062A   23244.96609865  .00000028  00000+0  00000+0 0  9990
2 43581  54.1788 216.9929 0005322 279.1924  80.7079  1.86231740 34651
